start=new Date('2021-11-28T00:00:00.000Z').valueOf();
sats=[{"GP_ID":"190623465","LAUNCH_DATE":"2021-03-14","MEAN_MOTION_DDOT":"0.0000000000000","ECCENTRICITY":"0.00019110","ELEMENT_SET_NO":"999","OBJECT_TYPE":"PAYLOAD","BSTAR":"-0.00003641400000","SITE":"AFETR","TIME_SYSTEM":"UTC","OBJECT_NAME":"STARLINK-2329","NORAD_CAT_ID":"47873","FILE":"3225675","RA_OF_ASC_NODE":"78.2151","COUNTRY_CODE":"US","DECAY_DATE":null,"MEAN_ANOMALY":"286.0528","MEAN_MOTION":"15.06390655","SEMIMAJOR_AXIS":"6925.377","CLASSIFICATION_TYPE":"U","PERIOD":"95.593","ARG_OF_PERICENTER":"74.0671","EPOCH":"2021-11-27T16:25:57.866592","MEAN_MOTION_DOT":"-0.00000824","REV_AT_EPOCH":"4074","TLE_LINE1":"1 47873U 21021P   21331.68469753 -.00000824  00000-0 -36414-4 0  9991","MEAN_ELEMENT_THEORY":"SGP4","RCS_SIZE":"LARGE","INCLINATION":"53.0512","OBJECT_ID":"2021-021P","EPHEMERIS_TYPE":"0","TLE_LINE2":"2 47873  53.0512  78.2151 0001911  74.0671 286.0528 15.06390655 40744","REF_FRAME":"TEME","APOAPSIS":"548.566","CENTER_NAME":"EARTH","PERIAPSIS":"545.919"},{"RA_OF_ASC_NODE":"32.3044","FILE":"3225675","NORAD_CAT_ID":"47874","SEMIMAJOR_AXIS":"6925.337","CLASSIFICATION_TYPE":"U","MEAN_MOTION":"15.06403826","MEAN_ANOMALY":"301.8538","DECAY_DATE":null,"COUNTRY_CODE":"US","ELEMENT_SET_NO":"999","ECCENTRICITY":"0.00006700","MEAN_MOTION_DDOT":"0.0000000000000","GP_ID":"190623224","LAUNCH_DATE":"2021-03-14","OBJECT_NAME":"STARLINK-2330","TIME_SYSTEM":"UTC","SITE":"AFETR","BSTAR":"0.00014867000000","OBJECT_TYPE":"PAYLOAD","OBJECT_ID":"2021-021Q","INCLINATION":"53.0495","PERIAPSIS":"546.738","CENTER_NAME":"EARTH","REF_FRAME":"TEME","APOAPSIS":"547.666","TLE_LINE2":"2 47874  53.0495  32.3044 0000670  58.2516 301.8538 15.06403826 41417","EPHEMERIS_TYPE":"0","EPOCH":"2021-11-27T21:25:08.280480","PERIOD":"95.592","ARG_OF_PERICENTER":"58.2516","RCS_SIZE":"LARGE","MEAN_ELEMENT_THEORY":"SGP4","TLE_LINE1":"1 47874U 21021Q   21331.89245695  .00001934  00000-0  14867-3 0  9990","REV_AT_EPOCH":"4141","MEAN_MOTION_DOT":"0.00001934"},{"DECAY_DATE":null,"COUNTRY_CODE":"US","CLASSIFICATION_TYPE":"U","SEMIMAJOR_AXIS":"6925.358","MEAN_ANOMALY":"278.9009","MEAN_MOTION":"15.06397081","FILE":"3225675","RA_OF_ASC_NODE":"87.9482","NORAD_CAT_ID":"47875","OBJECT_TYPE":"PAYLOAD","BSTAR":"0.00000104570000","TIME_SYSTEM":"UTC","OBJECT_NAME":"STARLINK-2331","SITE":"AFETR","LAUNCH_DATE":"2021-03-14","GP_ID":"190621980","MEAN_MOTION_DDOT":"0.0000000000000","ELEMENT_SET_NO":"999","ECCENTRICITY":"0.00011410","EPHEMERIS_TYPE":"0","TLE_LINE2":"2 47875  53.0563  87.9482 0001141  81.2109 278.9009 15.06397081 40673","CENTER_NAME":"EARTH","PERIAPSIS":"546.432","REF_FRAME":"TEME","APOAPSIS":"548.013","INCLINATION":"53.0563","OBJECT_ID":"2021-021R","REV_AT_EPOCH":"4067","MEAN_MOTION_DOT":"-0.00000266","RCS_SIZE":"LARGE","TLE_LINE1":"1 47875U 21021R   21331.74274767 -.00000266  00000-0  10457-5 0  9998","MEAN_ELEMENT_THEORY":"SGP4","ARG_OF_PERICENTER":"81.2109","PERIOD":"95.592","EPOCH":"2021-11-27T17:49:33.398688"},{"OBJECT_TYPE":"PAYLOAD","BSTAR":"0.00013223000000","TIME_SYSTEM":"UTC","OBJECT_NAME":"STARLINK-2332","SITE":"AFETR","GP_ID":"190622230","LAUNCH_DATE":"2021-03-14","MEAN_MOTION_DDOT":"0.0000000000000","ELEMENT_SET_NO":"999","ECCENTRICITY":"0.00013210","DECAY_DATE":null,"COUNTRY_CODE":"US","SEMIMAJOR_AXIS":"6925.348","CLASSIFICATION_TYPE":"U","MEAN_ANOMALY":"273.0102","MEAN_MOTION":"15.06400302","FILE":"3225675","NORAD_CAT_ID":"47876","RA_OF_ASC_NODE":"88.0092","REV_AT_EPOCH":"4062","MEAN_MOTION_DOT":"0.00001689","RCS_SIZE":"LARGE","TLE_LINE1":"1 47876U 21021S   21331.73168694  .00001689  00000-0  13223-3 0  9990","MEAN_ELEMENT_THEORY":"SGP4","PERIOD":"95.592","ARG_OF_PERICENTER":"87.1038","EPOCH":"2021-11-27T17:33:37.751616","EPHEMERIS_TYPE":"0","TLE_LINE2":"2 47876  53.0567  88.0092 0001321  87.1038 273.0102 15.06400302 40629","CENTER_NAME":"EARTH","PERIAPSIS":"546.298","APOAPSIS":"548.127","REF_FRAME":"TEME","INCLINATION":"53.0567","OBJECT_ID":"2021-021S"},{"ELEMENT_SET_NO":"999","ECCENTRICITY":"0.00012120","MEAN_MOTION_DDOT":"0.0000000000000","LAUNCH_DATE":"2021-03-14","GP_ID":"190622966","TIME_SYSTEM":"UTC","OBJECT_NAME":"STARLINK-2333","SITE":"AFETR","BSTAR":"0.00003562400000","OBJECT_TYPE":"PAYLOAD","RA_OF_ASC_NODE":"87.9283","FILE":"3225675","NORAD_CAT_ID":"47877","SEMIMAJOR_AXIS":"6925.351","CLASSIFICATION_TYPE":"U","MEAN_MOTION":"15.06399148","MEAN_ANOMALY":"272.4342","DECAY_DATE":null,"COUNTRY_CODE":"US","EPOCH":"2021-11-27T17:54:51.849216","PERIOD":"95.592","ARG_OF_PERICENTER":"87.6786","RCS_SIZE":"LARGE","MEAN_ELEMENT_THEORY":"SGP4","TLE_LINE1":"1 47877U 21021T   21331.74643344  .00000249  00000-0  35624-4 0  9993","REV_AT_EPOCH":"4061","MEAN_MOTION_DOT":"0.00000249","OBJECT_ID":"2021-021T","INCLINATION":"53.0563","PERIAPSIS":"546.377","CENTER_NAME":"EARTH","REF_FRAME":"TEME","APOAPSIS":"548.056","TLE_LINE2":"2 47877  53.0563  87.9283 0001212  87.6786 272.4342 15.06399148 40613","EPHEMERIS_TYPE":"0"},{"REV_AT_EPOCH":"4041","MEAN_MOTION_DOT":"-0.00000326","RCS_SIZE":"LARGE","MEAN_ELEMENT_THEORY":"SGP4","TLE_LINE1":"1 47878U 21021U   21331.75748771 -.00000326  00000-0 -30251-5 0  9995","EPOCH":"2021-11-27T18:10:46.938144","PERIOD":"95.592","ARG_OF_PERICENTER":"77.8295","TLE_LINE2":"2 47878  53.0570  87.8972 0001269  77.8295 282.2837 15.06403115 40410","EPHEMERIS_TYPE":"0","PERIAPSIS":"546.325","CENTER_NAME":"EARTH","REF_FRAME":"TEME","APOAPSIS":"548.083","INCLINATION":"53.0570","OBJECT_ID":"2021-021U","BSTAR":"-0.00000302510000","OBJECT_TYPE":"PAYLOAD","TIME_SYSTEM":"UTC","OBJECT_NAME":"STARLINK-2335","SITE":"AFETR","MEAN_MOTION_DDOT":"0.0000000000000","LAUNCH_DATE":"2021-03-14","GP_ID":"190623724","ELEMENT_SET_NO":"999","ECCENTRICITY":"0.00012690","DECAY_DATE":null,"COUNTRY_CODE":"US","CLASSIFICATION_TYPE":"U","SEMIMAJOR_AXIS":"6925.339","MEAN_MOTION":"15.06403115","MEAN_ANOMALY":"282.2837","FILE":"3225675","NORAD_CAT_ID":"47878","RA_OF_ASC_NODE":"87.8972"},{"MEAN_ELEMENT_THEORY":"SGP4","TLE_LINE1":"1 47879U 21021V   21331.75426828  .00000893  00000-0  78844-4 0  9998","RCS_SIZE":"LARGE","MEAN_MOTION_DOT":"0.00000893","REV_AT_EPOCH":"4058","EPOCH":"2021-11-27T18:06:08.779392","PERIOD":"95.591","ARG_OF_PERICENTER":"84.2625","APOAPSIS":"548.197","REF_FRAME":"TEME","PERIAPSIS":"546.158","CENTER_NAME":"EARTH","TLE_LINE2":"2 47879  53.0562 102.9199 0001472  84.2625 275.8531 15.06411642 40588","EPHEMERIS_TYPE":"0","OBJECT_ID":"2021-021V","INCLINATION":"53.0562","SITE":"AFETR","TIME_SYSTEM":"UTC","OBJECT_NAME":"STARLINK-2336","BSTAR":"0.00007884400000","OBJECT_TYPE":"PAYLOAD","ECCENTRICITY":"0.00014720","ELEMENT_SET_NO":"999","MEAN_MOTION_DDOT":"0.0000000000000","LAUNCH_DATE":"2021-03-14","GP_ID":"190622480","MEAN_MOTION":"15.06411642","MEAN_ANOMALY":"275.8531","SEMIMAJOR_AXIS":"6925.313","CLASSIFICATION_TYPE":"U","COUNTRY_CODE":"US","DECAY_DATE":null,"RA_OF_ASC_NODE":"102.9199","FILE":"3225675","NORAD_CAT_ID":"47879"},{"REF_FRAME":"TEME","APOAPSIS":"548.178","CENTER_NAME":"EARTH","PERIAPSIS":"546.232","EPHEMERIS_TYPE":"0","TLE_LINE2":"2 47880  53.0567  98.3026 0001405  89.2424 270.8725 15.06402820 40465","OBJECT_ID":"2021-021W","INCLINATION":"53.0567","TLE_LINE1":"1 47880U 21021W   21331.66347083  .00001027  00000-0  87839-4 0  9999","MEAN_ELEMENT_THEORY":"SGP4","RCS_SIZE":"LARGE","MEAN_MOTION_DOT":"0.00001027","REV_AT_EPOCH":"4046","ARG_OF_PERICENTER":"89.2424","PERIOD":"95.592","EPOCH":"2021-11-27T15:55:23.879712","MEAN_ANOMALY":"270.8725","MEAN_MOTION":"15.06402820","CLASSIFICATION_TYPE":"U","SEMIMAJOR_AXIS":"6925.340","COUNTRY_CODE":"US","DECAY_DATE":null,"FILE":"3225675","RA_OF_ASC_NODE":"98.3026","NORAD_CAT_ID":"47880","SITE":"AFETR","TIME_SYSTEM":"UTC","OBJECT_NAME":"STARLINK-2337","OBJECT_TYPE":"PAYLOAD","BSTAR":"0.00008783900000","ECCENTRICITY":"0.00014050","ELEMENT_SET_NO":"999","LAUNCH_DATE":"2021-03-14","GP_ID":"190622730","MEAN_MOTION_DDOT":"0.0000000000000"},{"INCLINATION":"53.0694","OBJECT_ID":"2021-021X","TLE_LINE2":"2 47881  53.0694  97.8491 0001723  87.2682 272.8504 15.06407110 40446","EPHEMERIS_TYPE":"0","REF_FRAME":"TEME","APOAPSIS":"548.385","PERIAPSIS":"545.999","CENTER_NAME":"EARTH","EPOCH":"2021-11-27T18:04:09.003936","ARG_OF_PERICENTER":"87.2682","PERIOD":"95.592","MEAN_MOTION_DOT":"-0.00000673","REV_AT_EPOCH":"4044","MEAN_ELEMENT_THEORY":"SGP4","TLE_LINE1":"1 47881U 21021X   21331.75288199 -.00000673  00000-0 -26273-4 0  9995","RCS_SIZE":"LARGE","RA_OF_ASC_NODE":"97.8491","FILE":"3225675","NORAD_CAT_ID":"47881","COUNTRY_CODE":"US","DECAY_DATE":null,"MEAN_MOTION":"15.06407110","MEAN_ANOMALY":"272.8504","SEMIMAJOR_AXIS":"6925.327","CLASSIFICATION_TYPE":"U","MEAN_MOTION_DDOT":"0.0000000000000","LAUNCH_DATE":"2021-03-14","GP_ID":"190623466","ECCENTRICITY":"0.00017230","ELEMENT_SET_NO":"999","BSTAR":"-0.00002627300000","OBJECT_TYPE":"PAYLOAD","SITE":"AFETR","OBJECT_NAME":"STARLINK-2339","TIME_SYSTEM":"UTC"},{"EPOCH":"2021-11-27T17:28:19.334784","ARG_OF_PERICENTER":"93.6778","PERIOD":"95.592","RCS_SIZE":"LARGE","MEAN_ELEMENT_THEORY":"SGP4","TLE_LINE1":"1 47882U 21021Y   21331.72800156  .00001512  00000-0  12039-3 0  9991","REV_AT_EPOCH":"4078","MEAN_MOTION_DOT":"0.00001512","OBJECT_ID":"2021-021Y","INCLINATION":"53.0556","PERIAPSIS":"546.337","CENTER_NAME":"EARTH","REF_FRAME":"TEME","APOAPSIS":"548.096","TLE_LINE2":"2 47882  53.0556  88.0138 0001270  93.6778 266.4356 15.06398925 40782","EPHEMERIS_TYPE":"0","ELEMENT_SET_NO":"999","ECCENTRICITY":"0.00012700","MEAN_MOTION_DDOT":"0.0000000000000","GP_ID":"190623225","LAUNCH_DATE":"2021-03-14","TIME_SYSTEM":"UTC","OBJECT_NAME":"STARLINK-2340","SITE":"AFETR","BSTAR":"0.00012039000000","OBJECT_TYPE":"PAYLOAD","RA_OF_ASC_NODE":"88.0138","FILE":"3225675","NORAD_CAT_ID":"47882","CLASSIFICATION_TYPE":"U","SEMIMAJOR_AXIS":"6925.352","MEAN_MOTION":"15.06398925","MEAN_ANOMALY":"266.4356","DECAY_DATE":null,"COUNTRY_CODE":"US"}];
